      2.10          N: GNSS NAV DATA                        RINEX VERSION / TYPE
fic2rin                                 11/07/2019 00:19:12 PGM / RUN BY / DATE
                                                            END OF HEADER
29 19 11  6  4  0  0.0 5.178106948733e-05-1.000444171950e-11 0.000000000000e+00
    8.000000000000e+00 2.768750000000e+01 3.823016386835e-09 9.483002094473e-01
    1.326203346252e-06 1.099640037864e-03 8.238479495049e-06 5.153674446106e+03
    2.736000000000e+05-3.725290298462e-08-5.636717190982e-01-3.166496753693e-08
    9.859662596694e-01 2.326250000000e+02 2.056906693826e+00-7.728179052535e-09
    8.571785620706e-12 1.000000000000e+00 2.078000000000e+03 0.000000000000e+00
    2.400000000000e+00 0.000000000000e+00-9.778887033463e-09 8.000000000000e+00
    2.664000000000e+05 4.000000000000e+00
22 19 11  6  4  0  0.0-7.696426473558e-04-2.728484105319e-12 0.000000000000e+00
    6.300000000000e+01-7.281250000000e+01 5.260576266974e-09-1.454717121436e-01
   -3.688037395477e-06 6.858759210445e-03 7.012858986855e-06 5.153661046982e+03
    2.736000000000e+05-1.564621925354e-07 1.385319526656e+00-5.401670932770e-08
    9.283959450176e-01 2.291250000000e+02-1.269721600864e+00-8.568214043364e-09
   -1.392915163365e-10 1.000000000000e+00 2.078000000000e+03 0.000000000000e+00
    2.400000000000e+00 0.000000000000e+00-1.816079020500e-08 6.300000000000e+01
    2.664000000000e+05 4.000000000000e+00
16 19 11  6  4  0  0.0-9.036716073751e-05-3.751665644813e-12 0.000000000000e+00
    8.100000000000e+01 2.062500000000e+00 4.234819254363e-09 1.741412266731e+00
    1.955777406693e-07 1.091172592714e-02 7.648020982742e-06 5.153663623810e+03
    2.736000000000e+05-2.197921276093e-07-1.590072948166e+00 1.545995473862e-07
    9.808986807216e-01 2.461250000000e+02 5.782641499258e-01-7.944973797192e-09
   -3.167989102319e-10 1.000000000000e+00 2.078000000000e+03 0.000000000000e+00
    2.400000000000e+00 0.000000000000e+00-1.024454832077e-08 8.100000000000e+01
    2.664000000000e+05 4.000000000000e+00
10 19 11  6  4  0  0.0-1.234035007656e-04-1.500666257925e-11 0.000000000000e+00
    7.700000000000e+01-6.300000000000e+01 4.380182452181e-09 2.900559002691e+00
   -3.242865204811e-06 5.025581922382e-03 7.260590791702e-06 5.153665262222e+03
    2.736000000000e+05-4.470348358154e-08 1.461221486357e+00-5.215406417847e-08
    9.636604147929e-01 2.410625000000e+02-2.742701041124e+00-7.943545166255e-09
   -7.536028191537e-11 1.000000000000e+00 2.078000000000e+03 0.000000000000e+00
    2.400000000000e+00 0.000000000000e+00 1.862645149231e-09 7.700000000000e+01
    2.664000000000e+05 4.000000000000e+00
 9 19 11  6  4  0  0.0-7.602572441101e-05-9.890754881781e-12 0.000000000000e+00
    4.300000000000e+01 2.937500000000e+00 4.536974697493e-09 1.271534625961e+00
    1.676380634308e-07 1.598297618330e-03 1.042336225510e-05 5.153569168091e+03
    2.736000000000e+05 1.862645149231e-08 2.496228391006e+00 3.725290298462e-09
    9.526851191363e-01 1.723750000000e+02 1.673271584832e+00-7.990689987169e-09
    2.257236880119e-10 1.000000000000e+00 2.078000000000e+03 0.000000000000e+00
    2.400000000000e+00 0.000000000000e+00 1.396983861923e-09 4.300000000000e+01
    2.664000000000e+05 4.000000000000e+00
15 19 11  6  4  0  0.0-2.746777608991e-04 2.728484105319e-12 0.000000000000e+00
    4.100000000000e+01-7.937500000000e+00 5.190216193337e-09-1.076026966671e-01
   -2.663582563400e-07 1.195870083757e-02 9.629875421524e-06 5.153591791153e+03
    2.736000000000e+05 4.656612873077e-08 2.412053645659e+00 1.657754182816e-07
    9.281347439204e-01 1.775312500000e+02 8.335288747948e-01-8.452494937485e-09
    1.507205638307e-10 1.000000000000e+00 2.078000000000e+03 0.000000000000e+00
    2.400000000000e+00 0.000000000000e+00-1.117587089539e-08 4.100000000000e+01
    2.664000000000e+05 4.000000000000e+00
13 19 11  6  4  0  0.0-3.454741090536e-05 2.273736754432e-12 0.000000000000e+00
    6.600000000000e+01 1.100000000000e+01 4.285178494885e-09-9.668549056163e-02
    5.606561899185e-07 4.002251895145e-03 9.775161743164e-06 5.153669031143e+03
    2.736000000000e+05-3.725290298462e-09 2.635919382360e+00 2.607703208923e-08
    9.680957951557e-01 1.966250000000e+02 1.192308612097e+00-7.873542250353e-09
    2.207234797332e-10 1.000000000000e+00 2.078000000000e+03 0.000000000000e+00
    2.400000000000e+00 0.000000000000e+00-1.117587089539e-08 6.600000000000e+01
    2.664000000000e+05 4.000000000000e+00
11 19 11  6  4  0  0.0-4.564938135445e-04 1.114131009672e-11 0.000000000000e+00
    3.900000000000e+01 3.996875000000e+01 5.537373510976e-09-2.207475456865e+00
    2.255663275719e-06 1.645841833670e-02 5.232170224190e-06 5.153745216370e+03
    2.736000000000e+05 9.872019290924e-08-3.847791562820e-02 3.073364496231e-07
    9.113554275774e-01 2.522187500000e+02 1.966328466388e+00-8.523926484324e-09
    1.332198348551e-10 1.000000000000e+00 2.078000000000e+03 0.000000000000e+00
    2.400000000000e+00 0.000000000000e+00-1.210719347000e-08 3.900000000000e+01
    2.664000000000e+05 4.000000000000e+00
14 19 11  6  4  0  0.0-5.209492519498e-05 2.160049916711e-12 0.000000000000e+00
    8.400000000000e+01 1.406250000000e+01 4.479829460021e-09 4.827253135726e-01
    6.407499313354e-07 1.074751035776e-02 9.808689355850e-06 5.153761680603e+03
    2.736000000000e+05-2.216547727585e-07 2.590401493854e+00 2.793967723846e-08
    9.606449661245e-01 1.917500000000e+02-1.934450357919e+00-8.087836890870e-09
    1.414344627416e-10 1.000000000000e+00 2.078000000000e+03 0.000000000000e+00
    2.400000000000e+00 0.000000000000e+00-9.778887033463e-09 8.400000000000e+01
    2.664000000000e+05 4.000000000000e+00
12 19 11  6  4  0  0.0 1.864847727120e-04-3.979039320257e-12 0.000000000000e+00
    5.900000000000e+01-9.937500000000e+00 4.211604001640e-09-2.674965692864e+00
   -4.526227712631e-07 7.519016973674e-03 7.355585694313e-06 5.153557458878e+03
    2.736000000000e+05 1.117587089539e-07-1.608980447511e+00-7.264316082001e-08
    9.806014903767e-01 2.470000000000e+02 1.102162006934e+00-7.802110703513e-09
   -2.407243128482e-10 1.000000000000e+00 2.078000000000e+03 0.000000000000e+00
    2.400000000000e+00 0.000000000000e+00-1.257285475731e-08 5.900000000000e+01
    2.664000000000e+05 4.000000000000e+00
31 19 11  6  4  0  0.0-1.272652298212e-06-2.501110429876e-12 0.000000000000e+00
    5.400000000000e+01 3.837500000000e+01 4.825915304457e-09-2.385099682872e+00
    1.881271600723e-06 9.513011667877e-03 6.418675184250e-06 5.153725061417e+03
    2.736000000000e+05-1.601874828339e-07-2.697481513298e+00-1.769512891769e-07
    9.591714433521e-01 2.593125000000e+02 5.605741012471e-02-8.137124658189e-09
    1.367914121971e-10 1.000000000000e+00 2.078000000000e+03 0.000000000000e+00
    2.400000000000e+00 0.000000000000e+00-1.350417733192e-08 5.400000000000e+01
    2.664000000000e+05 4.000000000000e+00
27 19 11  6  4  0  0.0-1.109205186367e-04-1.205080479849e-11 0.000000000000e+00
    6.200000000000e+01 2.790625000000e+01 4.118742990749e-09 7.893749701446e-01
    1.609325408936e-06 7.317413692363e-03 7.955357432365e-06 5.153658679962e+03
    2.736000000000e+05 0.000000000000e+00-6.322103907861e-01 9.685754776001e-08
    9.786961902590e-01 2.337500000000e+02 5.043754419931e-01-7.954974213749e-09
   -9.321816862518e-11 1.000000000000e+00 2.078000000000e+03 0.000000000000e+00
    2.400000000000e+00 0.000000000000e+00 1.862645149231e-09 6.200000000000e+01
    2.664000000000e+05 4.000000000000e+00
25 19 11  6  4  0  0.0-1.678196713328e-05-5.684341886081e-13 0.000000000000e+00
    5.900000000000e+01-8.187500000000e+00 4.440899266994e-09-3.079471145202e+00
   -5.085021257401e-07 8.538827416487e-03 7.191672921181e-06 5.153637269974e+03
    2.736000000000e+05-1.117587089539e-08-1.675375091332e+00-1.564621925354e-07
    9.679848957249e-01 2.436562500000e+02 8.873309011908e-01-7.912472443380e-09
   -2.582250418238e-10 1.000000000000e+00 2.078000000000e+03 0.000000000000e+00
    2.400000000000e+00 0.000000000000e+00 5.587935447693e-09 5.900000000000e+01
    2.664000000000e+05 4.000000000000e+00
30 19 11  6  4  0  0.0-7.759779691696e-05-8.299139153678e-12 0.000000000000e+00
    7.500000000000e+01 4.137500000000e+01 5.266647948455e-09-2.115045106381e+00
    1.937150955200e-06 4.160506883636e-03 5.919486284256e-06 5.153729225159e+03
    2.736000000000e+05 5.587935447693e-09-2.686467836523e+00-6.332993507385e-08
    9.400565139271e-01 2.573125000000e+02-2.906821386333e+00-8.389992334000e-09
    1.610781381224e-10 1.000000000000e+00 2.078000000000e+03 0.000000000000e+00
    2.400000000000e+00 0.000000000000e+00 3.725290298462e-09 7.500000000000e+01
    2.664000000000e+05 4.000000000000e+00
21 19 11  6  4  0  0.0-9.061442688107e-05 6.025402399246e-12 0.000000000000e+00
    4.600000000000e+01 6.406250000000e+00 4.686266630387e-09 3.029891837694e+00
    3.147870302200e-07 2.454115077853e-02 4.310160875320e-06 5.153628772736e+03
    2.736000000000e+05 4.079192876816e-07 3.540291580726e-01 1.005828380585e-07
    9.507367404700e-01 2.866562500000e+02-1.400273769309e+00-7.919972755798e-09
    8.357490980188e-11 1.000000000000e+00 2.078000000000e+03 0.000000000000e+00
    2.400000000000e+00 0.000000000000e+00-1.024454832077e-08 4.600000000000e+01
    2.664000000000e+05 4.000000000000e+00
24 19 11  6  4  0  0.0-4.516914486885e-06-5.684341886081e-13 0.000000000000e+00
    9.600000000000e+01 4.196875000000e+01 5.301649406407e-09-1.137149539003e+00
    2.203509211540e-06 8.998717996292e-03 5.688518285751e-06 5.153666648865e+03
    2.736000000000e+05 1.993030309677e-07-2.780886908565e+00-1.676380634308e-08
    9.379235296283e-01 2.551250000000e+02 6.187588707506e-01-8.430708315699e-09
    1.946509651369e-10 1.000000000000e+00 2.078000000000e+03 0.000000000000e+00
    2.400000000000e+00 0.000000000000e+00 2.793967723846e-09 9.600000000000e+01
    2.664000000000e+05 4.000000000000e+00
